{
  "type": "FeatureCollection",
  "features": [
    {
      "type": "Feature",
      "properties": {
        "norad_id": 32447,
        "name": "FENGYUN 1C DEB",
        "group": "fengyun-1c-debris",
        "lat": -75.31832768872236,
        "lon": 39.505307247484666,
        "alt_km": 943.9101357207555,
        "timestamp": "2025-12-12T11:38:31.698545+00:00",
        "meta_object_name": "FENGYUN 1C DEB",
        "meta_object_id": "1999-025DBK",
        "meta_epoch": "2025-12-09T20:22:18.261408",
        "meta_mean_motion": 13.96013309,
        "meta_eccentricity": 0.00800272,
        "meta_inclination": 98.9313,
        "meta_ra_of_asc_node": 0.0649,
        "meta_arg_of_pericenter": 49.1812,
        "meta_mean_anomaly": 311.6255,
        "meta_ephemeris_type": 0,
        "meta_classification_type": "U",
        "meta_norad_cat_id": 32447,
        "meta_element_set_no": 999,
        "meta_rev_at_epoch": 67838,
        "meta_bstar": 0.00036340481,
        "meta_mean_motion_dot": 4.69e-06,
        "meta_mean_motion_ddot": 0,
        "tle_line1": "1 32447U 99025DBK 25343.84882247  .00000469  00000+0  36340-3 0  9992",
        "tle_line2": "2 32447  98.9313   0.0649 0080027  49.1812 311.6255 13.96013309678386"
      },
      "geometry": {
        "type": "Point",
        "coordinates": [
          39.505307247484666,
          -75.31832768872236
        ]
      }
    },
    {
      "type": "Feature",
      "properties": {
        "norad_id": 32451,
        "name": "FENGYUN 1C DEB",
        "group": "fengyun-1c-debris",
        "lat": -41.72600778989136,
        "lon": -24.726098240374558,
        "alt_km": 1017.0926327641537,
        "timestamp": "2025-12-12T11:38:31.698556+00:00",
        "meta_object_name": "FENGYUN 1C DEB",
        "meta_object_id": "1999-025DBP",
        "meta_epoch": "2025-12-12T03:11:36.873888",
        "meta_mean_motion": 13.86566826,
        "meta_eccentricity": 0.0185319,
        "meta_inclination": 99.9714,
        "meta_ra_of_asc_node": 325.8729,
        "meta_arg_of_pericenter": 196.5555,
        "meta_mean_anomaly": 162.9495,
        "meta_ephemeris_type": 0,
        "meta_classification_type": "U",
        "meta_norad_cat_id": 32451,
        "meta_element_set_no": 999,
        "meta_rev_at_epoch": 61756,
        "meta_bstar": 0.0027242,
        "meta_mean_motion_dot": 3.574e-05,
        "meta_mean_motion_ddot": 0,
        "tle_line1": "1 32451U 99025DBP 25346.13306567  .00003574  00000+0  27242-2 0  9998",
        "tle_line2": "2 32451  99.9714 325.8729 0185319 196.5555 162.9495 13.86566826617567"
      },
      "geometry": {
        "type": "Point",
        "coordinates": [
          -24.726098240374558,
          -41.72600778989136
        ]
      }
    },
    {
      "type": "Feature",
      "properties": {
        "norad_id": 32453,
        "name": "FENGYUN 1C DEB",
        "group": "fengyun-1c-debris",
        "lat": -37.527051301162196,
        "lon": 68.89583619653096,
        "alt_km": 823.6455723696954,
        "timestamp": "2025-12-12T11:38:31.698566+00:00",
        "meta_object_name": "FENGYUN 1C DEB",
        "meta_object_id": "1999-025DBR",
        "meta_epoch": "2025-12-11T12:20:31.094592",
        "meta_mean_motion": 14.02250131,
        "meta_eccentricity": 0.00963031,
        "meta_inclination": 99.3722,
        "meta_ra_of_asc_node": 255.1856,
        "meta_arg_of_pericenter": 209.4918,
        "meta_mean_anomaly": 150.0793,
        "meta_ephemeris_type": 0,
        "meta_classification_type": "U",
        "meta_norad_cat_id": 32453,
        "meta_element_set_no": 999,
        "meta_rev_at_epoch": 93411,
        "meta_bstar": 0.0010354241,
        "meta_mean_motion_dot": 1.605e-05,
        "meta_mean_motion_ddot": 0,
        "tle_line1": "1 32453U 99025DBR 25345.51424878  .00001605  00000+0  10354-2 0  9996",
        "tle_line2": "2 32453  99.3722 255.1856 0096303 209.4918 150.0793 14.02250131934119"
      },
      "geometry": {
        "type": "Point",
        "coordinates": [
          68.89583619653096,
          -37.527051301162196
        ]
      }
    },
    {
      "type": "Feature",
      "properties": {
        "norad_id": 32455,
        "name": "FENGYUN 1C DEB",
        "group": "fengyun-1c-debris",
        "lat": -63.56530768422355,
        "lon": -156.75522375478153,
        "alt_km": 1072.0742761881638,
        "timestamp": "2025-12-12T11:38:31.698576+00:00",
        "meta_object_name": "FENGYUN 1C DEB",
        "meta_object_id": "1999-025DBT",
        "meta_epoch": "2025-12-11T06:39:28.496160",
        "meta_mean_motion": 13.92448217,
        "meta_eccentricity": 0.02362641,
        "meta_inclination": 101.7339,
        "meta_ra_of_asc_node": 177.0068,
        "meta_arg_of_pericenter": 148.9162,
        "meta_mean_anomaly": 212.6213,
        "meta_ephemeris_type": 0,
        "meta_classification_type": "U",
        "meta_norad_cat_id": 32455,
        "meta_element_set_no": 999,
        "meta_rev_at_epoch": 64395,
        "meta_bstar": 0.004280984,
        "meta_mean_motion_dot": 6.869e-05,
        "meta_mean_motion_ddot": 0,
        "tle_line1": "1 32455U 99025DBT 25345.27741315  .00006869  00000+0  42810-2 0  9998",
        "tle_line2": "2 32455 101.7339 177.0068 0236264 148.9162 212.6213 13.92448217643953"
      },
      "geometry": {
        "type": "Point",
        "coordinates": [
          -156.75522375478153,
          -63.56530768422355
        ]
      }
    },
    {
      "type": "Feature",
      "properties": {
        "norad_id": 32456,
        "name": "FENGYUN 1C DEB",
        "group": "fengyun-1c-debris",
        "lat": -34.65938182739652,
        "lon": -62.91747792253779,
        "alt_km": 850.8507670527315,
        "timestamp": "2025-12-12T11:38:31.698586+00:00",
        "meta_object_name": "FENGYUN 1C DEB",
        "meta_object_id": "1999-025DBU",
        "meta_epoch": "2025-12-07T15:29:29.480640",
        "meta_mean_motion": 13.3560312,
        "meta_eccentricity": 0.03795662,
        "meta_inclination": 103.6664,
        "meta_ra_of_asc_node": 120.3053,
        "meta_arg_of_pericenter": 235.7459,
        "meta_mean_anomaly": 120.7155,
        "meta_ephemeris_type": 0,
        "meta_classification_type": "U",
        "meta_norad_cat_id": 32456,
        "meta_element_set_no": 999,
        "meta_rev_at_epoch": 60548,
        "meta_bstar": 0.0033121081,
        "meta_mean_motion_dot": 2.469e-05,
        "meta_mean_motion_ddot": 0,
        "tle_line1": "1 32456U 99025DBU 25341.64548010  .00002469  00000+0  33121-2 0  9990",
        "tle_line2": "2 32456 103.6664 120.3053 0379566 235.7459 120.7155 13.35603120605481"
      },
      "geometry": {
        "type": "Point",
        "coordinates": [
          -62.91747792253779,
          -34.65938182739652
        ]
      }
    },
    {
      "type": "Feature",
      "properties": {
        "norad_id": 32458,
        "name": "FENGYUN 1C DEB",
        "group": "fengyun-1c-debris",
        "lat": 48.96998887867672,
        "lon": -163.10697373272157,
        "alt_km": 693.6074658732759,
        "timestamp": "2025-12-12T11:38:31.698597+00:00",
        "meta_object_name": "FENGYUN 1C DEB",
        "meta_object_id": "1999-025DBW",
        "meta_epoch": "2025-12-08T06:52:15.068064",
        "meta_mean_motion": 14.62160146,
        "meta_eccentricity": 0.00405564,
        "meta_inclination": 99.046,
        "meta_ra_of_asc_node": 1.7508,
        "meta_arg_of_pericenter": 27.6994,
        "meta_mean_anomaly": 332.6353,
        "meta_ephemeris_type": 0,
        "meta_classification_type": "U",
        "meta_norad_cat_id": 32458,
        "meta_element_set_no": 999,
        "meta_rev_at_epoch": 67724,
        "meta_bstar": 0.0019224362,
        "meta_mean_motion_dot": 9.742e-05,
        "meta_mean_motion_ddot": 0,
        "tle_line1": "1 32458U 99025DBW 25342.28628551  .00009742  00000+0  19224-2 0  9991",
        "tle_line2": "2 32458  99.0460   1.7508 0040556  27.6994 332.6353 14.62160146677242"
      },
      "geometry": {
        "type": "Point",
        "coordinates": [
          -163.10697373272157,
          48.96998887867672
        ]
      }
    },
    {
      "type": "Feature",
      "properties": {
        "norad_id": 32459,
        "name": "FENGYUN 1C DEB",
        "group": "fengyun-1c-debris",
        "lat": -37.073975950643316,
        "lon": 174.3869253225875,
        "alt_km": 623.6056227448762,
        "timestamp": "2025-12-12T11:38:31.698606+00:00",
        "meta_object_name": "FENGYUN 1C DEB",
        "meta_object_id": "1999-025DBX",
        "meta_epoch": "2025-12-10T18:41:41.819136",
        "meta_mean_motion": 14.42793421,
        "meta_eccentricity": 0.02131784,
        "meta_inclination": 98.3025,
        "meta_ra_of_asc_node": 359.0584,
        "meta_arg_of_pericenter": 192.2812,
        "meta_mean_anomaly": 167.3135,
        "meta_ephemeris_type": 0,
        "meta_classification_type": "U",
        "meta_norad_cat_id": 32459,
        "meta_element_set_no": 999,
        "meta_rev_at_epoch": 94522,
        "meta_bstar": 0.00080448392,
        "meta_mean_motion_dot": 3.48e-05,
        "meta_mean_motion_ddot": 0,
        "tle_line1": "1 32459U 99025DBX 25344.77895624  .00003480  00000+0  80448-3 0  9995",
        "tle_line2": "2 32459  98.3025 359.0584 0213178 192.2812 167.3135 14.42793421945228"
      },
      "geometry": {
        "type": "Point",
        "coordinates": [
          174.3869253225875,
          -37.073975950643316
        ]
      }
    }
  ]
}